#cP2014  7 22  0  0  0.00000000     288 u+U   IGb08 FIT  TUM
## 1802 172800.00000000   300.00000000 56860 0.0000000000000
+    4   J01E11E12E19  0  0  0  0  0  0  0  0  0  0  0  0  0
+          0  0  0  0  0  0  0  0  0  0  0  0  0  0  0  0  0
+          0  0  0  0  0  0  0  0  0  0  0  0  0  0  0  0  0
+          0  0  0  0  0  0  0  0  0  0  0  0  0  0  0  0  0
+          0  0  0  0  0  0  0  0  0  0  0  0  0  0  0  0  0
++         1  1  1  0  0  0  0  0  0  0  0  0  0  0  0  0  0
++         0  0  0  0  0  0  0  0  0  0  0  0  0  0  0  0  0
++         0  0  0  0  0  0  0  0  0  0  0  0  0  0  0  0  0
++         0  0  0  0  0  0  0  0  0  0  0  0  0  0  0  0  0
++         0  0  0  0  0  0  0  0  0  0  0  0  0  0  0  0  0
%c E  cc GPS ccc cccc cccc cccc cccc ccccc ccccc ccccc ccccc
%c cc cc ccc ccc cccc cccc cccc cccc ccccc ccccc ccccc ccccc
%f  1.2500000  1.025000000  0.00000000000  0.000000000000000
%f  0.0000000  0.000000000  0.00000000000  0.000000000000000
%i    0    0    0    0      0      0      0      0         0
%i    0    0    0    0      0      0      0      0         0
/* Galileo+QZSS orbits for MGEX based on CONGO+MGEX data    
/* Technische Universitaet Muenchen (TUM)                   
/* Further information: www.iapg.bv.tum.de/mgex             
/* PCV:IGS08_1645 OL/AL:FES2004  NONE     YN ORB:CoN CLK:CoN
*  2014  7 22  0  0  0.00000000
PJ01 -20800.533499  21435.089025 -25099.433717    217.658159
PE11 -14260.179300  18189.968573 -18485.561006     50.083031
PE12 -27029.480817  11482.677869  -3664.132106     22.401993
PE19 -14836.785761  -9791.022634 -23663.547441     11.624804
*  2014  7 22  0  5  0.00000000
PJ01 -20983.541587  21143.040730 -25179.781827    217.652154
PE11 -14774.991544  18376.173990 -17887.134000     50.086316
PE12 -27115.709208  11530.437870  -2768.793101     22.405190
PE19 -14702.018935 -10487.187753 -23448.836428     11.625046
*  2014  7 22  0 10  0.00000000
PJ01 -21176.564797  20856.556890 -25244.907285    217.646128
PE11 -15268.162385  18567.799603 -17263.955030     50.089553
PE12 -27175.452127  11570.950821  -1869.621557     22.408354
PE19 -14584.324125 -11179.386138 -23201.683266     11.625272
*  2014  7 22  0 15  0.00000000
PJ01 -21379.317536  20576.098010 -25294.761540    217.640181
PE11 -15739.032509  18763.709854 -16616.885812     50.092791
PE12 -27208.999109  11603.027595   -967.862048     22.411522
PE19 -14483.604878 -11866.246894 -22922.430895     11.625510
*  2014  7 22  0 20  0.00000000
PJ01 -21591.494705  20302.112804 -25329.307315    217.634167
PE11 -16187.013147  18962.737998 -15946.821175     50.096074
PE12 -27216.715017  11625.501046    -64.762691     22.414717
PE19 -14399.689611 -12546.409883 -22611.466637     11.625755
*  2014  7 22  0 25  0.00000000
PJ01 -21812.772314  20035.037229 -25348.518660    217.628127
PE11 -16611.587877  19163.690288 -15254.687836     50.099307
PE12 -27199.038649  11637.230326    838.426567     22.417889
PE19 -14332.332344 -13218.530216 -22269.221658     11.625984
*  2014  7 22  0 30  0.00000000
PJ01 -22042.808162  19775.293556 -25352.380994    217.622201
PE11 -17012.314188  19365.350262 -14541.443111     50.102562
PE12 -27156.481100  11637.105122   1740.455706     22.421042
PE19 -14281.213682 -13881.282710 -21896.170364     11.626218
*  2014  7 22  0 35  0.00000000
PJ01 -22281.242547  19523.289467 -25340.891126    217.616179
PE11 -17388.824786  19566.483103 -13808.073598     50.105796
PE12 -27089.623869  11624.049781   2640.076348     22.424215
PE19 -14245.942069 -14533.366262 -21492.829743     11.626425
*  2014  7 22  0 40  0.00000000
PJ01 -22527.699035  19279.417189 -25314.057265    217.610127
PE11 -17740.828633  19765.840080 -13055.593805     50.109029
PE12 -26999.116722  11597.027315   3536.043506     22.427413
PE19 -14226.055289 -15173.508159 -21059.758645     11.626644
*  2014  7 22  0 45  0.00000000
PJ01 -22781.785252  19044.052670 -25271.899000    217.604147
PE11 -18068.111732  19962.163030 -12285.044756     50.112261
PE12 -26885.675328  11555.043274   4427.117295     22.430571
PE19 -14221.022220 -15800.468270 -20597.557005     11.626866
*  2014  7 22  0 50  0.00000000
PJ01 -23043.093729  18817.554786 -25214.447281    217.598159
PE11 -18370.537635  20154.188884 -11497.492542     50.115479
PE12 -26750.078658  11497.149473   5312.064666     22.433732
PE19 -14230.244835 -16413.043147 -20106.865008     11.627087
*  2014  7 22  0 55  0.00000000
PJ01 -23311.202780  18600.264605 -25141.744365    217.592113
PE11 -18648.047690  20340.654216 -10694.026845     50.118722
PE12 -26593.166180  11422.447558   6189.661111     22.436894
PE19 -14253.060434 -17010.069986 -19588.362203     11.627292
*  2014  7 22  1  0  0.00000000
PJ01 -23585.677406  18392.504675 -25053.843757    217.586123
PE11 -18900.661015  20520.299785  -9875.759441     50.121957
PE12 -26415.834837  11330.092392   7058.692354     22.440084
PE19 -14288.744105 -17590.430450 -19042.766559     11.627503
*  2014  7 22  1  5  0.00000000
PJ01 -23866.070242  18194.578381 -24950.810129    217.580169
PE11 -19128.474200  20691.875085  -9043.822638     50.125190
PE12 -26219.035831  11219.295268   7917.956046     22.443274
PE19 -14336.511411 -18153.054346 -18470.833465     11.627709
*  2014  7 22  1 10  0.00000000
PJ01 -24151.922521  18006.769334 -24832.719226    217.574156
PE11 -19331.660742  20854.142852  -8199.367730     50.128395
PE12 -26003.771220  11089.326921   8766.263419     22.446478
PE19 -14395.521285 -18696.923125 -17873.354690     11.627941
*  2014  7 22  1 15  0.00000000
PJ01 -24442.765077  17829.340810 -24699.657750    217.568145
PE11 -19510.470223  21005.883532  -7343.563380     50.131631
PE12 -25771.090351  10939.520322   9602.440946     22.449658
PE19 -14464.879121 -19221.073224 -17251.157277     11.628167
*  2014  7 22  1 20  0.00000000
PJ01 -24738.119356  17662.535254 -24551.723234    217.562190
PE11 -19665.227204  21145.899703  -6477.594016     50.134847
PE12 -25522.086115  10769.273279  10425.331950     22.452812
PE19 -14543.640062 -19724.599188 -16605.102403     11.628383
*  2014  7 22  1 25  0.00000000
PJ01 -25037.498462  17506.573816 -24389.023898    217.556209
PE11 -19796.329885  21273.020402  -5602.658173     50.138077
PE12 -25257.891072  10578.050787  11233.798223     22.455991
PE19 -14630.812460 -20206.656626 -15936.084182     11.628602
*  2014  7 22  1 30  0.00000000
PJ01 -25340.408201  17361.655958 -24211.678491    217.550146
PE11 -19904.248483  21386.105385  -4719.966846     50.141314
PE12 -24979.673431  10365.387167  12026.721583     22.459182
PE19 -14725.361510 -20666.464923 -15245.028428     11.628802
*  2014  7 22  1 35  0.00000000
PJ01 -25646.348164  17227.959103 -24019.816119    217.544190
PE11 -19989.523383  21484.049267  -3830.741795     50.144537
PE12 -24688.632912  10130.887945  12803.005436     22.462398
PE19 -14826.213027 -21103.309764 -14532.891372     11.629014
*  2014  7 22  1 40  0.00000000
PJ01 -25954.812800  17105.638341 -23813.576053    217.538187
PE11 -20052.763035  21565.785550  -2936.213852     50.147758
PE12 -24385.996505   9874.231490  13561.576284     22.465583
PE19 -14932.257372 -21516.545406 -13800.658338     11.629229
*  2014  7 22  1 45  0.00000000
PJ01 -26265.292502  16994.826203 -23593.107537    217.532157
PE11 -20094.641615  21630.290521  -2037.621226     50.150993
PE12 -24073.014139   9595.170409  14301.385207     22.468755
PE19 -15042.353502 -21905.596721 -13049.342379     11.629440
*  2014  7 22  1 50  0.00000000
PJ01 -26577.274708  16895.632461 -23358.569567    217.526177
PE11 -20115.896469  21676.587000  -1136.207761     50.154272
PE12 -23750.954267   9293.532663  15021.409320     22.471994
PE19 -15155.333130 -22269.960999 -12279.982875     11.629682
*  2014  7 22  1 55  0.00000000
PJ01 -26890.244989  16808.144019 -23110.130672    217.520193
PE11 -20117.325323  21703.747924   -233.221231     50.157495
PE12 -23421.099406   8969.222435  15720.653175     22.475147
PE19 -15270.004983 -22609.209496 -11493.644096     11.629888
*  2014  7 22  2  0  0.00000000
PJ01 -27203.688151  16732.424833 -22847.968674    217.514100
PE11 -20099.783297  21710.899776    670.088415     50.160718
PE12 -23084.741612   8622.220733  16398.150149     22.478309
PE19 -15385.159149 -22922.988732 -10691.413721     11.630053
*  2014  7 22  2  5  0.00000000
PJ01 -27517.089311  16668.515897 -22572.270450    217.508119
PE11 -20064.179720  21697.225804   1572.470758     50.163953
PE12 -22743.177956   8252.585715  17052.963754     22.481496
PE19 -15499.571480 -23211.021522  -9874.401353     11.630273
*  2014  7 22  2 10  0.00000000
PJ01 -27829.935007  16616.435280 -22283.231653    217.502174
PE11 -20011.474752  21661.969072   2472.676689     50.167183
PE12 -22397.705945   7860.452750  17684.188962     22.484700
PE19 -15612.008061 -23473.107755  -9043.736952     11.630483
*  2014  7 22  2 15  0.00000000
PJ01 -28141.714243  16576.178221 -21981.056474    217.496159
PE11 -19942.675838  21604.435281   3369.460099     50.170418
PE12 -22049.618997   7446.034222  18290.953418     22.487861
PE19 -15721.229701 -23709.124893  -8200.569306     11.630716
*  2014  7 22  2 20  0.00000000
PJ01 -28451.919564  16547.717280 -21665.957349    217.490127
PE11 -19858.833989  21523.995398   4261.579638     50.173670
PE12 -21700.201886   7009.619047  18872.418663     22.491069
PE19 -15825.996465 -23919.028213  -7346.064421     11.630952
*  2014  7 22  2 25  0.00000000
PJ01 -28760.048105  16531.002527 -21338.154680    217.484155
PE11 -19761.039931  21420.088033   5147.800433     50.176891
PE12 -21350.726257   6551.571929  19427.781283     22.494265
PE19 -15925.072182 -24102.850783  -6481.403913     11.631144
*  2014  7 22  2 30  0.00000000
PJ01 -29065.602614  16525.961800 -20997.876552    217.478158
PE11 -19650.420103  21292.221605   6026.895793     50.180164
PE12 -21002.446179   6072.332365  19956.274009     22.497499
PE19 -16017.228972 -24260.703156  -5607.783382     11.631379
*  2014  7 22  2 35  0.00000000
PJ01 -29368.092459  16532.501001 -20645.358429    217.472106
PE11 -19528.132537  21139.976253   6897.648926     50.183391
PE12 -20656.593755   5572.413367  20457.166781     22.500695
PE19 -16101.251728 -24392.772814  -4726.410746     11.631549
*  2014  7 22  2 40  0.00000000
PJ01 -29667.034619  16550.504449 -20280.842862    217.466132
PE11 -19395.362639  20963.005509   7758.854615     50.186626
PE12 -20314.374830   5052.399952  20929.767741     22.503879
PE19 -16175.942561 -24499.323332  -3838.504588     11.631789
*  2014  7 22  2 45  0.00000000
PJ01 -29961.954641  16579.835272 -19904.579175    217.460191
PE11 -19253.318863  20761.037708   8609.320904     50.189891
PE12 -19976.964783   4512.947358  21373.424195     22.507096
PE19 -16240.125188 -24580.693292  -2945.292452     11.631995
*  2014  7 22  2 50  0.00000000
PJ01 -30252.387570  16620.335852 -19516.823163    217.454143
PE11 -19103.228322  20533.877144   9447.870736     50.193152
PE12 -19645.504440   3954.779036  21787.523497     22.510309
PE19 -16292.649247 -24637.294934  -2048.009169     11.632219
*  2014  7 22  2 55  0.00000000
PJ01 -30537.878860  16671.828314 -19117.836775    217.448134
PE11 -18946.332327  20281.404968  10273.343606     50.196401
PE12 -19321.096095   3378.684390  22171.493900     22.513536
PE19 -16332.394525 -24669.612546  -1147.895131     11.632429
*  2014  7 22  3  0  0.00000000
PJ01 -30817.985241  16734.115050 -18707.887804    217.442180
PE11 -18783.881886  20003.579804  11084.597148     50.199673
PE12 -19004.799694   2785.516293  22524.805330     22.516755
PE19 -16358.275075 -24678.200625   -246.194592     11.632639
*  2014  7 22  3  5  0.00000000
PJ01 -31092.275563  16806.979287 -18287.249565    217.436136
PE11 -18617.133170  19700.438117  11880.508738     50.202954
PE12 -18697.629150   2176.188380  22846.970121     22.519972
PE19 -16369.243225 -24663.681776    655.846059     11.632857
*  2014  7 22  3 10  0.00000000
PJ01 -31360.331597  16890.185701 -17856.200581    217.430142
PE11 -18447.342964  19372.094297  12659.977042     50.206228
PE12 -18400.548833   1551.672133  23137.543676     22.523192
PE19 -16364.293458 -24626.744391   1556.980015     11.633079
*  2014  7 22  3 15  0.00000000
PJ01 -31621.748806  16983.481053 -17415.024269    217.424171
PE11 -18275.764123  19018.740480  13421.923538     50.209476
PE12 -18114.470238    912.993763  23396.125079     22.526408
PE19 -16342.466132 -24568.140099   2455.961771     11.633285
*  2014  7 22  3 20  0.00000000
PJ01 -31876.137077  17086.594874 -16964.008614    217.418123
PE11 -18103.641039  18640.646096  14165.294020     50.212737
PE12 -17840.248836    261.230891  23622.357641     22.529600
PE19 -16302.851056 -24488.680995   3351.548850     11.633502
*  2014  7 22  3 25  0.00000000
PJ01 -32123.121409  17199.240167 -16503.445865    217.412091
PE11 -17932.205148  18238.157156  14889.060047     50.215987
PE12 -17578.681130   -402.490929  23815.929386     22.532806
PE19 -16244.590895 -24389.236666   4242.503507     11.633689
*  2014  7 22  3 30  0.00000000
PJ01 -32362.342571  17321.114155 -16033.632207    217.406121
PE11 -17762.670483  17811.695261  15592.220379     50.219210
PE12 -17330.501917  -1077.001878  23976.573478     22.536009
PE19 -16166.884382 -24270.731020   5127.594450     11.633893
*  2014  7 22  3 35  0.00000000
PJ01 -32593.457709  17451.899040 -15554.867463    217.400127
PE11 -17596.229292  17361.756367  16273.802347     50.222485
PE12 -17096.381775  -1761.091671  24104.068584     22.539225
PE19 -16068.989348 -24134.138930   6005.598526     11.634126
*  2014  7 22  3 40  0.00000000
PJ01 -32816.140915  17591.262803 -15067.454774    217.394099
PE11 -17434.047733  16888.909276  16932.863214     50.225759
PE12 -16876.924767  -2453.513526  24198.239174     22.542425
PE19 -15950.225541 -23980.482700   6875.302420     11.634351
*  2014  7 22  3 45  0.00000000
PJ01 -33030.083755  17738.860012 -14571.700302    217.388136
PE11 -17277.261671  16393.793885  17568.491466     50.229033
PE12 -16672.666396  -3152.988224  24258.955758     22.545667
PE19 -15809.977238 -23810.828377   7735.504316     11.634578
*  2014  7 22  3 50  0.00000000
PJ01 -33234.995751  17894.332663 -14067.912919    217.382152
PE11 -17126.972581  15877.119186  18179.808079     50.232307
PE12 -16484.071789  -3858.208322  24286.135063     22.548842
PE19 -15647.695622 -23626.281906   8585.015565     11.634787
*  2014  7 22  3 55  0.00000000
PJ01 -33430.604819  18057.311035 -13556.403916    217.376127
PE11 -16984.243568  15339.661026  18765.967730     50.235581
PE12 -16311.534141  -4567.842430  24279.740140     22.552072
PE19 -15462.900941 -23427.985155   9422.662321     11.635010
*  2014  7 22  4  0  0.00000000
PJ01 -33616.657669  18227.414554 -13037.486708    217.370117
PE11 -16850.095540  14782.259640  19326.159963     50.238869
PE12 -16155.373404  -5280.539595  24239.780416     22.555244
PE19 -15255.184419 -23217.111819  10247.287151     11.635210
*  2014  7 22  4  5  0.00000000
PJ01 -33792.920146  18404.252681 -12511.476554    217.364189
PE11 -16725.503523  14205.816953  19859.610308     50.242129
PE12 -16015.835252  -5994.933748  24166.311670     22.558476
PE19 -15024.209927 -22994.863216  11057.750643     11.635416
*  2014  7 22  4 10  0.00000000
PJ01 -33959.177549  18587.425807 -11978.690256    217.358126
PE11 -16611.393133  13611.293680  20365.581350     50.245404
PE12 -15893.090278  -6709.648194  24059.435964     22.561710
PE19 -14769.715396 -22762.463990  11852.932964     11.635637
*  2014  7 22  4 15  0.00000000
PJ01 -34115.234883  18776.526158 -11439.445903    217.352131
PE11 -16508.637245  12999.706212  20843.373748     50.248688
PE12 -15787.233493  -7423.300164  23919.301493     22.564927
PE19 -14491.513982 -22521.157735  12631.735415     11.635845
*  2014  7 22  4 20  0.00000000
PJ01 -34260.917079  18971.138700 -10894.062591    217.346171
PE11 -16418.052830  12372.123319  21292.327188     50.251959
PE12 -15698.284068  -8134.505353  23746.102377     22.568145
PE19 -14189.494962 -22272.202565  13393.081932     11.636067
*  2014  7 22  4 25  0.00000000
PJ01 -34396.069170  19170.842065 -10342.860161    217.340211
PE11 -16340.398001  11729.662663  21711.821303     50.255251
PE12 -15626.185353  -8841.882508  23540.078395     22.571345
PE19 -13863.624377 -22016.866623  14135.920581     11.636292
*  2014  7 22  4 30  0.00000000
PJ01 -34520.556417  19375.209459  -9786.158945    217.334167
PE11 -16276.369269  11073.487156  22101.276521     50.258514
PE12 -15570.805159  -9544.057963  23301.514652     22.574528
PE19 -13513.945395 -21756.423580  14859.224990     11.636498
*  2014  7 22  4 35  0.00000000
PJ01 -34634.264400  19583.809585  -9224.279513    217.328231
PE11 -16226.599016  10404.801142  22460.154861     50.261806
PE12 -15531.936314 -10239.670188  23030.741185     22.577742
PE19 -13140.578418 -21492.148094  15561.995781     11.636706
*  2014  7 22  4 40  0.00000000
PJ01 -34737.099057  19796.207558  -8657.542431    217.322219
PE11 -16191.653193   9724.846456  22787.960676     50.265085
PE12 -15509.297476 -10927.374268  22728.132506     22.580960
PE19 -12743.720917 -21225.311293  16243.261936     11.636943
*  2014  7 22  4 45  0.00000000
PJ01 -34828.986686  20011.965825  -8086.268029    217.316185
PE11 -16172.029259   9034.898350  23084.241326     50.268369
PE12 -15502.534218 -11605.846334  22394.107085     22.584181
PE19 -12323.647007 -20957.176255  16902.082129     11.637171
*  2014  7 22  4 50  0.00000000
PJ01 -34909.873910  20230.645059  -7510.776167    217.310175
PE11 -16168.154359   8336.261285  23348.587806     50.271630
PE12 -15511.220359 -12273.787939  22029.126775     22.587375
PE19 -11880.706739 -20688.993536  17537.546035     11.637370
*  2014  7 22  4 55  0.00000000
PJ01 -34979.727593  20451.805068  -6931.386026    217.304153
PE11 -16180.383759   7630.264655  23580.635301     50.274905
PE12 -15534.859562 -12929.930315  21633.696174     22.590529
PE19 -11415.325149 -20421.996736  18148.775572     11.637570
*  2014  7 22  5  0  0.00000000
PJ01 -35038.534717  20675.005688  -6348.415881    217.298114
PE11 -16208.999520   6918.258397  23780.063690     50.278188
PE12 -15572.887170 -13573.038561  21208.361927     22.593723
PE19 -10928.001036 -20157.398126  18734.926116     11.637794
*  2014  7 22  5  5  0.00000000
PJ01 -35086.302227  20899.807652  -5762.182908    217.292122
PE11 -16254.209452   6201.608552  23946.597974     50.281460
PE12 -15624.672284 -14201.915689  20753.711980     22.596903
PE19 -10419.305485 -19896.384368  19295.187659     11.638000
*  2014  7 22  5 10  0.00000000
PJ01 -35123.056834  21125.773466  -5173.002978    217.286180
PE11 -16316.146314   5481.692750  24080.008661     50.284735
PE12 -15689.520087 -14815.406561  20270.374759     22.600106
PE19  -9889.880141 -19640.112308  19828.785932     11.638208
*  2014  7 22  5 15  0.00000000
PJ01 -35148.844780  21352.468253  -4581.190477    217.280117
PE11 -16394.867288   4759.895684  24180.112073     50.287989
PE12 -15766.674379 -15412.401662  19759.018319     22.603317
PE19  -9340.435242 -19389.704893  20334.983462     11.638418
*  2014  7 22  5 20  0.00000000
PJ01 -35163.731567  21579.460600  -3987.058118    217.274091
PE11 -16490.353720   4037.604533  24246.770594     50.291292
PE12 -15855.320341 -15991.840732  19220.349411     22.606516
PE19  -8771.747404 -19146.247205  20813.080591     11.638666
*  2014  7 22  5 25  0.00000000
PJ01 -35167.801655  21806.323361  -3390.916764    217.268179
PE11 -16602.511128   3316.204392  24279.892855     50.294540
PE12 -15954.587498 -16552.716225  18655.112513     22.609714
PE19  -8184.657187 -18910.782625  21262.416444     11.638885
*  2014  7 22  5 30  0.00000000
PJ01 -35161.158126  22032.634475  -2793.075275    217.262174
PE11 -16731.169479   2597.073718  24279.433860     50.297832
PE12 -16063.552892 -17094.076572  18064.088810     22.612907
PE19  -7580.066437 -18684.309157  21682.369832     11.639096
*  2014  7 22  5 35  0.00000000
PJ01 -35143.922311  22257.977728  -2193.840332    217.256129
PE11 -16876.083733   1881.579771  24245.395038     50.301122
PE12 -16181.244424 -17615.029283  17448.095109     22.616107
PE19  -6958.935403 -18467.775904  22072.360115     11.639324
*  2014  7 22  5 40  0.00000000
PJ01 -35116.233394  22481.943524  -1593.516302    217.250189
PE11 -17036.934654   1171.074138  24177.824238     50.304403
PE12 -16306.644387 -18114.743805  16807.982726     22.619297
PE19  -6322.279672 -18262.079727  22431.847995     11.639559
*  2014  7 22  5 45  0.00000000
PJ01 -35078.247978  22704.129620   -992.405081    217.244194
PE11 -17213.329882    466.888271  24076.815662     50.307687
PE12 -16438.693154 -18592.454201  16144.636297     22.622494
PE19  -5671.166892 -18068.062080  22760.336269     11.639780
*  2014  7 22  5 50  0.00000000
PJ01 -35030.139633  22924.141826   -390.805968    217.238135
PE11 -17404.805264   -229.670875  23942.509725     50.310957
PE12 -16576.293015 -19047.461590  15458.972580     22.625722
PE19  -5006.713332 -17886.506055  23057.370507     11.640007
*  2014  7 22  5 55  0.00000000
PJ01 -34972.098404  23141.594709    210.984472    217.232189
PE11 -17610.826443   -917.325136  23775.092863     50.314240
PE12 -16718.312154 -19479.136354  14751.939170     22.628921
PE19  -4330.080254 -17718.133618  23322.539686     11.640208
*  2014  7 22  6  0  0.00000000
PJ01 -34904.330308  23356.112244    812.672525    217.226237
PE11 -17830.790688  -1594.829316  23574.797271     50.317516
PE12 -16863.588744 -19886.920115  14024.513213     22.632131
PE19  -3642.470151 -17563.603080  23555.476752     11.640444
*  2014  7 22  6  5  0.00000000
PJ01 -34827.056795  23567.328455   1413.967438    217.220165
PE11 -18064.028980  -2260.975260  23341.900570     50.320771
PE12 -17010.935160 -20270.327458  13277.700045     22.635326
PE19  -2945.122821 -17423.506773  23755.859137     11.640651
*  2014  7 22  6 10  0.00000000
PJ01 -34740.514196  23774.888018   2014.581548    217.214168
PE11 -18309.808310  -2914.595799  23076.725437     50.324052
PE12 -17159.142263 -20628.947413  12512.531815     22.638513
PE19  -2239.311317 -17298.368984  23923.409195     11.640880
*  2014  7 22  6 15  0.00000000
PJ01 -34644.953143  23978.446849   2614.230360    217.208227
PE11 -18567.334230  -3554.568539  22779.639145     50.327303
PE12 -17306.983796 -20962.444663  11730.066062     22.641696
PE19  -1526.337799 -17188.644106  24057.894599     11.641095
*  2014  7 22  6 20  0.00000000
PJ01 -34540.637968  24177.672653   3212.632655    217.202168
PE11 -18835.753609  -4179.819506  22451.053054     50.330588
PE12 -17453.220811 -21270.560510  10931.384246     22.644933
PE19   -807.529250 -17094.715054  24159.128656     11.641316
*  2014  7 22  6 25  0.00000000
PJ01 -34427.846095  24372.245441   3809.510575    217.196155
PE11 -19114.157593  -4789.326612  22091.422046     50.333841
PE12 -17596.606163 -21553.113561  10117.590273     22.648106
PE19    -84.233145 -17016.891923  24226.970574     11.641523
*  2014  7 22  6 30  0.00000000
PJ01 -34306.867401  24561.858035   4404.589709    217.190211
PE11 -19401.584776  -5382.122956  21701.243887     50.337118
PE12 -17735.889033 -21810.000161   9289.808959     22.651298
PE19    642.186990 -16955.410911  24261.325657     11.641758
*  2014  7 22  6 35  0.00000000
PJ01 -34178.003570  24746.216519   4997.599166    217.184213
PE11 -19697.024549  -5957.299906  21281.058550     50.340367
PE12 -17869.819458 -22041.194544   8449.184487     22.654483
PE19   1370.356042 -16910.433496  24262.145445     11.641981
*  2014  7 22  6 40  0.00000000
PJ01 -34041.567431  24925.040682   5588.271652    217.178157
PE11 -19999.420625  -6514.010010  20831.447454     50.343678
PE12 -17997.152874 -22246.748726   7596.878819     22.657681
PE19   2098.891843 -16882.045888  24229.427780     11.642194
*  2014  7 22  6 45  0.00000000
PJ01 -33897.882284  25098.064414   6176.343528    217.172207
PE11 -20307.674732  -7051.469663  20353.032670     50.346931
PE12 -18116.654634 -22426.792123   6734.070104     22.660883
PE19   2826.409702 -16870.258736  24163.216818     11.642426
*  2014  7 22  6 50  0.00000000
PJ01 -33747.281210  25265.036079   6761.554878    217.166210
PE11 -20620.650454  -7568.961577  19846.476056     50.350181
PE12 -18227.104500 -22581.530908   5861.951042     22.664091
PE19   3551.526972 -16875.007105  24063.602976     11.642656
*  2014  7 22  6 55  0.00000000
PJ01 -33590.106381  25425.718854   7343.649563    217.160160
PE11 -20937.177207  -8065.837004  19312.478343     50.353440
PE12 -18327.301087 -22711.247095   4981.727236     22.667287
PE19   4272.867594 -16896.150730  23930.722810     11.642865
*  2014  7 22  7  0  0.00000000
PJ01 -33426.708349  25579.891042   7922.375263    217.154181
PE11 -21256.054338  -8541.517723  18751.778170     50.356694
PE12 -18416.066242 -22816.297369   4094.615542     22.670464
PE19   4989.066613 -16933.474520  23764.758834     11.643063
*  2014  7 22  7  5  0.00000000
PJ01 -33257.445341  25727.346342   8497.483538    217.148196
PE11 -21576.055342  -8995.497793  18165.151056     50.359989
PE12 -18492.249347 -22897.111656   3201.842365     22.673653
PE19   5698.774685 -16986.689345  23565.939277     11.643289
*  2014  7 22  7 10  0.00000000
PJ01 -33082.682537  25867.894102   9068.729850    217.142195
PE11 -21895.932157  -9427.345032  17553.408340     50.363251
PE12 -18554.731532 -22954.191436   2304.641991     22.676843
PE19   6400.662492 -17055.433065  23334.537777     11.643511
*  2014  7 22  7 15  0.00000000
PJ01 -32902.791349  26001.359528   9635.873619    217.136198
PE11 -22214.419553  -9836.702271  16917.396047     50.366522
PE12 -18602.429772 -22988.107821   1404.254854     22.680051
PE19   7093.425129 -17139.271840  23070.873005     11.643741
*  2014  7 22  7 20  0.00000000
PJ01 -32718.148696  26127.583875  10198.678239    217.130212
PE11 -22530.239577 -10223.288309  16257.993732     50.369790
PE12 -18634.300873 -22999.499376    501.925848     22.683259
PE19   7775.786365 -17237.701675  22775.308239     11.643941
*  2014  7 22  7 25  0.00000000
PJ01 -32529.136278  26246.424588  10756.911121    217.124171
PE11 -22842.106049 -10586.898642  15576.113253     50.373062
PE12 -18649.345312 -22989.069724   -401.097417     22.686446
PE19   8446.502846 -17350.150224  22448.250865     11.644177
*  2014  7 22  7 30  0.00000000
PJ01 -32336.139850  26357.755433  11310.343703    217.118146
PE11 -23148.729088 -10927.405896  14872.697526     50.376346
PE12 -18646.610933 -22957.584919  -1303.566319     22.689616
PE19   9104.368152 -17475.978833  22090.151829     11.644410
*  2014  7 22  7 35  0.00000000
PJ01 -32139.548487  26461.466587  11858.751483    217.112196
PE11 -23448.819663 -11244.760007  14148.719210     50.379597
PE12 -18625.196484 -22905.870604  -2204.232968     22.692798
PE19   9748.216748 -17614.484821  21701.505016     11.644636
*  2014  7 22  7 40  0.00000000
PJ01 -31939.753870  26557.464694  12401.914033    217.106177
PE11 -23741.094132 -11538.988131  13405.179367     50.382902
PE12 -18584.254965 -22834.808966  -3101.851923     22.695994
PE19  10376.927787 -17764.903987  21282.846582     11.644864
*  2014  7 22  7 45  0.00000000
PJ01 -31737.149557  26645.672894  12939.615006    217.100111
PE11 -24024.278776 -11810.194278  12643.106088     50.386130
PE12 -18522.996808 -22745.335501  -3995.181909     22.699179
PE19  10989.428749 -17926.413332  20834.754216     11.645060
*  2014  7 22  7 50  0.00000000
PJ01 -31532.130262  26726.030834  13471.642161    217.094177
PE11 -24297.114305 -12058.558688  11863.553061     50.389417
PE12 -18440.692849 -22638.435583  -4882.987550     22.702359
PE19  11584.698933 -18098.134001  20357.846354     11.645313
*  2014  7 22  7 55  0.00000000
PJ01 -31325.091150  26798.494625  13997.787359    217.088179
PE11 -24558.360302 -12284.336942  11067.598124     50.392683
PE12 -18336.677088 -22515.140881  -5764.041057     22.705536
PE19  12161.772755 -18279.134412  19852.781332     11.645537
*  2014  7 22  8  0  0.00000000
PJ01 -31116.427122  26863.036798  14517.846579    217.082154
PE11 -24806.799628 -12487.858799  10256.341771     50.395979
PE12 -18210.349244 -22376.525598  -6637.123951     22.708755
PE19  12719.742859 -18468.433582  19320.256479     11.645788
*  2014  7 22  8  5  0.00000000
PJ01 -30906.532125  26919.646209  15031.619900    217.076173
PE11 -25041.242728 -12669.526793   9430.905642     50.399245
PE12 -18061.177069 -22223.702581  -7501.028718     22.711894
PE19  13257.763025 -18665.004621  18761.007177     11.646001
*  2014  7 22  8 10  0.00000000
PJ01 -30695.798448  26968.327925  15538.911540    217.070214
PE11 -25260.531861 -12829.814566   8592.430955     50.402509
PE12 -17888.698433 -22057.819286  -8354.560514     22.715082
PE19  13775.050879 -18867.778409  18175.805821     11.646226
*  2014  7 22  8 15  0.00000000
PJ01 -30484.616055  27009.103088  16039.529814    217.064173
PE11 -25463.545211 -12969.264960   7742.076952     50.405801
PE12 -17692.523178 -21880.053647  -9196.538791     22.718276
PE19  14270.890355 -19075.647395  17565.460793     11.646451
*  2014  7 22  8 20  0.00000000
PJ01 -30273.371900  27042.008747  16533.287154    217.058161
PE11 -25649.200888 -13088.487860   6881.019281     50.409068
PE12 -17472.334706 -21691.609814 -10025.798947     22.721481
PE19  14744.633957 -19287.469569  16930.815327     11.646686
*  2014  7 22  8 25  0.00000000
PJ01 -30062.449279  27067.097656  17020.000097    217.052239
PE11 -25816.460783 -13188.157819   6010.448378     50.412345
PE12 -17227.891315 -21493.713825 -10841.193933     22.724634
PE19  15195.704763 -19502.072527  16272.746360     11.646932
*  2014  7 22  8 30  0.00000000
PJ01 -29852.227174  27084.438061  17499.489272    217.046206
PE11 -25964.334283 -13269.011445   5131.567828     50.415613
PE12 -16959.027290 -21287.609188 -11641.595836     22.727811
PE19  15623.598192 -19718.257670  15592.163322     11.647173
*  2014  7 22  8 35  0.00000000
PJ01 -29643.079618  27094.113458  17971.579401    217.040140
PE11 -26091.881818 -13331.844582   4245.592687     50.418883
PE12 -16665.653715 -21074.552421 -12425.897448     22.730939
PE19  16027.883524 -19934.804489  14890.006881     11.647384
*  2014  7 22  8 40  0.00000000
PJ01 -29435.375084  27096.222313  18436.099279    217.034208
PE11 -26198.218237 -13377.509285   3353.747822     50.422147
PE12 -16347.759023 -20855.808541 -13193.013790     22.734133
PE19  16408.205156 -20150.474924  14167.247654     11.647615
*  2014  7 22  8 45  0.00000000
PJ01 -29229.475864  27090.877779  18892.881768    217.028223
PE11 -26282.515997 -13406.910595   2457.266203     50.425411
PE12 -16005.409287 -20632.646523 -13941.883622     22.737364
PE19  16764.283605 -20364.017811  13424.884855     11.647854
*  2014  7 22  8 50  0.00000000
PJ01 -29025.737492  27078.207379  19341.763777    217.022179
PE11 -26344.008159 -13421.003135   1557.387212     50.428665
PE12 -15638.748232 -20406.334766 -14671.470906     22.740574
PE19  17095.916240 -20574.173351  12663.944934     11.648078
*  2014  7 22  8 55  0.00000000
PJ01 -28824.508161  27058.352665  19782.586256    217.016228
PE11 -26381.991166 -13420.787537    655.354918     50.431937
PE12 -15247.996979 -20178.136541 -15380.766245     22.743783
PE19  17402.977760 -20779.677637  11885.480140     11.648290
*  2014  7 22  9  0  0.00000000
PJ01 -28626.128169  27031.468863  20215.194170    217.010254
PE11 -26395.827416 -13407.306706   -247.583631     50.435188
PE12 -14833.453528 -19949.305483 -16068.788273     22.747008
PE19  17685.420383 -20979.267183  11090.567085     11.648526
*  2014  7 22  9  5  0.00000000
PJ01 -28430.929377  26997.724493  20639.436489    217.004191
PE11 -26384.947604 -13381.641939  -1150.180137     50.438413
PE12 -14395.491971 -19721.081103 -16734.585024     22.750216
PE19  17943.273789 -21171.683472  10280.305242     11.648736
*  2014  7 22  9 10  0.00000000
PJ01 -28239.234688  26957.300966  21055.166170    216.998217
PE11 -26348.852824 -13344.908917  -2051.186778     50.441707
PE12 -13934.561432 -19494.684365 -17377.235242     22.753419
PE19  18176.644781 -21355.677469   9455.815431     11.648973
*  2014  7 22  9 15  0.00000000
PJ01 -28051.357548  26910.392172  21462.240133    216.992219
PE11 -26287.116438 -13298.253567  -2949.357923     50.444973
PE12 -13451.184763 -19271.313321 -17995.849654     22.756610
PE19  18385.716680 -21530.014132   8618.238268     11.649196
*  2014  7 22  9 20  0.00000000
PJ01 -27867.601454  26857.204041  21860.519252    216.986128
PE11 -26199.385688 -13242.847833  -3843.451868     50.448184
PE12 -12945.956967 -19052.138833 -18589.572212     22.759791
PE19  18570.748459 -21693.476856   7768.732582     11.649370
*  2014  7 22  9 25  0.00000000
PJ01 -27688.259503  26797.954089  22249.868321    216.980095
PE11 -26085.383065 -13179.885361  -4732.232533     50.451449
PE12 -12419.543389 -18838.300403 -19157.581267     22.762984
PE19  18732.073610 -21844.871865   6908.473813     11.649581
*  2014  7 22  9 30  0.00000000
PJ01 -27513.613933  26732.870947  22630.156050    216.974179
PE11 -25944.907408 -13110.577088  -5614.471192     50.454697
PE12 -11872.677648 -18630.902105 -19699.090715     22.766189
PE19  18870.098757 -21983.032532   6038.652380     11.649828
*  2014  7 22  9 35  0.00000000
PJ01 -27343.935718  26662.193882  23001.255031    216.968135
PE11 -25777.834749 -13036.146801  -6488.948149     50.457918
PE12 -11306.159341 -18431.008648 -20213.351078     22.769383
PE19  18985.302012 -22106.823602   5160.472035     11.650051
*  2014  7 22  9 40  0.00000000
PJ01 -27179.484152  26586.172291  23363.041726    216.962117
PE11 -25584.118884 -12957.826632  -7354.454441     50.461170
PE12 -10720.851513 -18239.641577 -20699.650551     22.772594
PE19  19078.231083 -22215.145315   4275.148186     11.650286
*  2014  7 22  9 45  0.00000000
PJ01 -27020.506484  26505.065184  23715.396441    216.956177
PE11 -25363.791687 -12876.852543  -8209.793493     50.464420
PE12 -10117.677914 -18057.775642 -21157.315981     22.775765
PE19  19149.501146 -22306.937397   3383.906221     11.650514
*  2014  7 22  9 50  0.00000000
PJ01 -26867.237551  26419.140667  24058.203308    216.950177
PE11 -25116.963144 -12794.459781  -9053.782784     50.467666
PE12  -9497.620032 -17886.335311 -21585.713801     22.778934
PE19  19199.792479 -22381.182936   2487.979796     11.650748
*  2014  7 22  9 55  0.00000000
PJ01 -26719.899446  26328.675397  24391.350263    216.944123
PE11 -24843.821125 -12711.878354  -9885.255478     50.470934
PE12  -8861.713941 -17726.191481 -21984.250911     22.782143
PE19  19229.847867 -22436.912094   1588.609128     11.650975
*  2014  7 22 10  0  0.00000000
PJ01 -26578.701216  26233.954028  24714.729022    216.938153
PE11 -24544.630887 -12630.328524 -10703.062023     50.474222
PE12  -8211.046952 -17578.158378 -22352.375497     22.785323
PE19  19240.469803 -22473.205662    687.039274     11.651180
*  2014  7 22 10  5  0.00000000
PJ01 -26443.838558  26135.268665  25028.235062    216.932146
PE11 -24219.734307 -12551.016329 -11506.071758     50.477484
PE12  -7546.754083 -17442.990649 -22689.577792     22.788492
PE19  19232.517468 -22489.198445   -215.481601     11.651360
*  2014  7 22 10 10  0.00000000
PJ01 -26315.493569  26032.918274  25331.767605    216.926045
PE11 -23869.548860 -12475.129160 -12293.174460     50.480688
PE12  -6870.014372 -17321.380670 -22995.390794     22.791654
PE19  19206.903525 -22484.082461  -1117.703958     11.651565
*  2014  7 22 10 15  0.00000000
PJ01 -26193.834493  25927.208123  25625.229589    216.920051
PE11 -23494.566326 -12403.831417 -13063.281890     50.483902
PE12  -6182.047027 -17213.956080 -23269.390905     22.794831
PE19  19164.590723 -22457.109939  -2018.378625     11.651811
*  2014  7 22 10 20  0.00000000
PJ01 -26079.015516  25818.449182  25908.527650    216.914090
PE11 -23095.351246 -12338.260234 -13815.329282     50.487168
PE12  -5484.107448 -17121.277543 -23511.198521     22.798017
PE19  19106.588336 -22407.596114  -2916.258522     11.652020
*  2014  7 22 10 25  0.00000000
PJ01 -25971.176562  25706.957541  26181.572106    216.908064
PE11 -22672.539129 -12279.521300 -14548.276826     50.490463
PE12  -4777.483112 -17043.836741 -23720.478559     22.801236
PE19  19033.948432 -22334.921803  -3810.100408     11.652254
*  2014  7 22 10 30  0.00000000
PJ01 -25870.443129  25593.053806  26444.276931    216.902055
PE11 -22226.834413 -12228.684804 -15261.111094     50.493730
PE12  -4063.489358 -16982.054620 -23896.940924     22.804429
PE19  18947.761999 -22238.535760  -4698.666598     11.652476
*  2014  7 22 10 35  0.00000000
PJ01 -25776.926143  25477.062498  26696.559741    216.896109
PE11 -21759.008185 -12186.781503 -15952.846448     50.497044
PE12  -3343.465060 -16936.279884 -24040.340913     22.807608
PE19  18849.154941 -22117.956783  -5580.726693     11.652705
*  2014  7 22 10 40  0.00000000
PJ01 -25690.721837  25359.311448  26938.341771    216.890060
PE11 -21269.895683 -12154.798920 -16622.526396     50.500335
PE12  -2618.768236 -16906.787743 -24150.479554     22.810806
PE19  18739.283951 -21972.775596  -6455.059286     11.652910
*  2014  7 22 10 45  0.00000000
PJ01 -25611.911653  25240.131185  27169.547859    216.884026
PE11 -20760.393566 -12133.677709 -17269.224912     50.503605
PE12  -1890.771585 -16893.778924 -24227.203886     22.813986
PE19  18619.332276 -21802.656473  -7320.453657     11.653144
*  2014  7 22 10 50  0.00000000
PJ01 -25540.562175  25119.854324  27390.106425    216.878043
PE11 -20231.456976 -12124.308180 -17892.047720     50.506847
PE12  -1160.857952 -16897.378943 -24270.407171     22.817154
PE19  18490.505403 -21607.338607  -8175.711467     11.653359
*  2014  7 22 10 55  0.00000000
PJ01 -25476.725073  24998.814958  27599.949459    216.872030
PE11 -19684.096407 -12127.527001 -18490.133520     50.510103
PE12   -430.415802 -16917.637651 -24280.029048     22.820302
PE19  18354.026656 -21386.637226  -9019.648410     11.653574
*  2014  7 22 11  0  0.00000000
PJ01 -25420.437087  24877.348036  27799.012497    216.865980
PE11 -19119.374367 -12144.114094 -19062.655189     50.513380
PE12    299.165377 -16954.529037 -24256.055615     22.823489
PE19  18211.132747 -21140.444435  -9851.095877     11.653801
*  2014  7 22 11  5  0.00000000
PJ01 -25371.720021  24755.788762  27987.234612    216.860050
PE11 -18538.401885 -12174.789726 -19608.820911     50.516668
PE12   1026.499629 -17007.951309 -24198.519457     22.826672
PE19  18063.069270 -20868.729812 -10668.902558     11.654031
*  2014  7 22 11 10  0.00000000
PJ01 -25330.580771  24634.471971  28164.558394    216.854134
PE11 -17942.334824 -12220.211815 -20127.875284     50.519906
PE12   1750.209110 -17077.727239 -24107.499599     22.829844
PE19  17911.086179 -20571.540708 -11471.936069     11.654236
*  2014  7 22 11 15  0.00000000
PJ01 -25297.011373  24513.731532  28330.929936    216.848018
PE11 -17332.370068 -12280.973462 -20619.100348     50.523161
PE12   2468.928607 -17163.604778 -23983.121401     22.833042
PE19  17756.433249 -20249.002302 -12259.084497     11.654471
*  2014  7 22 11 20  0.00000000
PJ01 -25270.989071  24393.899736  28486.298821    216.842053
PE11 -16709.741553 -12357.600697 -21081.816591     50.526448
PE12   3181.310043 -17265.257934 -23825.556392     22.836233
PE19  17600.355537 -19901.317377 -13029.257970     11.654705
*  2014  7 22 11 25  0.00000000
PJ01 -25252.476421  24275.306693  28630.618108    216.836058
PE11 -16075.716169 -12450.550474 -21515.383879     50.529677
PE12   3886.026902 -17382.287914 -23635.022030     22.839391
PE19  17444.088873 -19528.765821 -13781.390155     11.654886
*  2014  7 22 11 30  0.00000000
PJ01 -25241.421398  24158.279744  28763.844320    216.830001
PE11 -15431.589565 -12560.208907 -21919.202343     50.532939
PE12   4581.778580 -17514.224520 -23411.781409     22.842569
PE19  17288.855373 -19131.703877 -14514.439743     11.655117
*  2014  7 22 11 35  0.00000000
PJ01 -25237.757550  24043.142860  28885.937431    216.823942
PE11 -14778.681837 -12686.889758 -22292.713211     50.536185
PE12   5267.294669 -17660.527810 -23156.142896     22.845738
PE19  17135.859019 -18710.563109 -15227.391898     11.655314
*  2014  7 22 11 40  0.00000000
PJ01 -25241.404149  23930.216067  28996.860856    216.817988
PE11 -14118.333154 -12830.833167 -22635.399576     50.539444
PE12   5941.339097 -17820.589990 -22868.459709     22.848911
PE19  16986.281289 -18265.849126 -15919.259660     11.655533
*  2014  7 22 11 45  0.00000000
PJ01 -25252.266393  23819.814859  29096.581443    216.811970
PE11 -13451.899290 -12992.204669 -22946.787115     50.542683
PE12   6602.714193 -17993.737560 -22549.129430     22.852096
PE19  16841.276889 -17798.140030 -16589.085320     11.655763
*  2014  7 22 11 50  0.00000000
PJ01 -25270.235601  23712.249642  29185.069460    216.805915
PE11 -12780.747141 -13171.094443 -23226.444742     50.545975
PE12   7250.264574 -18179.233693 -22198.593462     22.855275
PE19  16701.969561 -17308.084640 -17235.941741     11.656001
*  2014  7 22 11 55  0.00000000
PJ01 -25295.189457  23607.825164  29262.298587    216.799913
PE11 -12106.250159 -13367.516850 -23473.985209     50.549224
PE12   7882.880930 -18376.280827 -21817.336413     22.858476
PE19  16569.448021 -16796.400434 -17858.933653     11.656239
*  2014  7 22 12  0  0.00000000
PJ01 -25326.992249  23506.839971  29328.245914    216.793902
PE11 -11429.783814 -13581.410228 -23689.065641     50.552479
PE12   8499.503607 -18584.023489 -21405.885438     22.861678
PE19  16444.762013 -16263.871294 -18457.198880     11.656463
*  2014  7 22 12  5  0.00000000
PJ01 -25365.495149  23409.585869  29382.891925    216.787845
PE11 -10752.721013 -13812.636963 -23871.388008     50.555733
PE12   9099.126047 -18801.551321 -20964.809506     22.864858
PE19  16328.918501 -15711.344992 -19029.909550     11.656691
*  2014  7 22 12 10  0.00000000
PJ01 -25410.536516  23316.347384  29426.220503    216.781878
PE11 -10076.427543 -14060.983812 -24020.699548     50.558980
PE12   9680.798038 -19027.902288 -20494.718616     22.868050
PE19  16222.878033 -15139.730459 -19576.273230     11.656923
*  2014  7 22 12 15  0.00000000
PJ01 -25461.942190  23227.401269  29458.218917    216.775921
PE11  -9402.257557 -14326.162514 -24136.793110     50.562194
PE12  10243.628747 -19262.066093 -19996.262960     22.871212
PE19  16127.551239 -14549.994863 -20095.534023     11.657142
*  2014  7 22 12 20  0.00000000
PJ01 -25519.525843  23143.015975  29478.877822    216.769835
PE11  -8731.549070 -14607.810656 -24219.507448     50.565441
PE12  10786.789583 -19502.987754 -19470.132017     22.874388
PE19  16043.795541 -13943.160458 -20586.973620     11.657380
*  2014  7 22 12 25  0.00000000
PJ01 -25583.089320  23063.451185  29488.191256    216.763825
PE11  -8065.619548 -14905.492795 -24268.727447     50.568678
PE12  11309.516808 -19749.571333 -18917.053608     22.877539
PE19  15972.412027 -13320.301264 -21049.912284     11.657573
*  2014  7 22 12 30  0.00000000
PJ01 -25652.423022  22988.957321  29486.156635    216.757874
PE11  -7405.761534 -15218.701853 -24284.384282     50.571925
PE12  11811.113952 -20000.683830 -18337.792883     22.880713
PE19  15914.142543 -12682.539552 -21483.709800     11.657797
*  2014  7 22 12 35  0.00000000
PJ01 -25727.306287  22919.775091  29472.774756    216.751841
PE11  -6753.238401 -15546.860749 -24266.455523     50.575184
PE12  12290.953969 -20255.159194 -17733.151273     22.883906
PE19  15869.666989 -12031.042180 -21887.766343     11.658047
*  2014  7 22 12 40  0.00000000
PJ01 -25807.507797  22856.135048  29448.049795    216.745822
PE11  -6109.280175 -15889.324296 -24214.965163     50.578442
PE12  12748.481174 -20511.802469 -17103.965369     22.887072
PE19  15839.600828 -11367.016757 -22261.523323     11.658272
*  2014  7 22 12 45  0.00000000
PJ01 -25892.786009  22798.257152  29411.989307    216.739868
PE11  -5475.079501 -16245.381322 -24129.983595     50.581685
PE12  13183.212914 -20769.394030 -16451.105778     22.890246
PE19  15824.492842 -10691.707684 -22604.464139     11.658495
*  2014  7 22 12 50  0.00000000
PJ01 -25982.889590  22746.350363  29364.604230    216.733802
PE11  -4851.787718 -16614.257039 -24011.627519     50.584908
PE12  13594.740999 -21026.693920 -15775.475906     22.893395
PE19  15824.823111 -10006.392052 -22916.114901     11.658705
*  2014  7 22 12 55  0.00000000
PJ01 -26077.557875  22700.612246  29305.908885    216.727760
PE11  -4240.511099 -16995.115630 -23860.059779     50.588178
PE12  13982.732862 -21282.446261 -15078.010713     22.896604
PE19  15841.001235  -9312.375441 -23196.045076     11.658934
*  2014  7 22 13  0  0.00000000
PJ01 -26176.521337  22661.228595  29235.920981    216.721796
PE11  -3642.307244 -17387.063053 -23675.489154     50.591441
PE12  14346.932467 -21535.383717 -14359.675421     22.899780
PE19  15873.364819  -8610.987621 -23443.868082     11.659170
*  2014  7 22 13  5  0.00000000
PJ01 -26279.502076  22628.373068  29154.661621    216.715766
PE11  -3058.181630 -17789.150062 -23458.170062     50.594680
PE12  14687.160950 -21784.232014 -13621.464167     22.902928
PE19  15922.178200  -7903.578150 -23659.241816     11.659391
*  2014  7 22 13 10  0.00000000
PJ01 -26386.214316  22602.206858  29062.155305    216.709680
PE11  -2489.084372 -18200.375405 -23208.402226     50.597929
PE12  15003.316976 -22027.714476 -12864.398640     22.906080
PE19  15987.631442  -7191.511944 -23841.869126     11.659615
*  2014  7 22 13 15  0.00000000
PJ01 -26496.364918  22582.878364  28958.429935    216.703696
PE11  -1935.907146 -18619.689229 -22926.530255     50.601190
PE12  15295.376850 -22264.556581 -12089.526647     22.909253
PE19  16069.839592  -6476.164748 -23991.498212     11.659822
*  2014  7 22 13 20  0.00000000
PJ01 -26609.653906  22570.522897  28843.516827    216.697731
PE11  -1399.480345 -19045.996643 -22612.943180     50.604443
PE12  15563.394346 -22493.490509 -11297.920679     22.912397
PE19  16168.842198  -5758.918615 -24107.922973     11.660062
*  2014  7 22 13 25  0.00000000
PJ01 -26725.775006  22565.262394  28717.450716    216.691680
PE11   -880.570427 -19478.161455 -22268.073916     50.607682
PE12  15807.500264 -22713.259677 -10490.676404     22.915559
PE19  16284.603104  -5041.157326 -24190.983287     11.660298
*  2014  7 22 13 30  0.00000000
PJ01 -26844.416189  22567.205164  28580.269766    216.685681
PE11   -379.877508 -19915.010040 -21892.398677     50.610916
PE12  16027.901727 -22922.623229  -9668.911168     22.918707
PE19  16417.010504  -4324.261843 -24240.565222     11.660507
*  2014  7 22 13 35  0.00000000
PJ01 -26965.260231  22576.445655  28432.015576    216.679757
PE11    101.966830 -20355.335367 -21486.436312     50.614163
PE12  16224.881207 -23120.360486  -8833.762426     22.921878
PE19  16565.877268  -3609.605738 -24256.601196     11.660741
*  2014  7 22 13 40  0.00000000
PJ01 -27087.985281  22593.064228  28272.733198    216.673741
PE11    564.401483 -20797.901124 -21050.747602     50.617425
PE12  16398.795298 -23305.275318  -7986.386174     22.925047
PE19  16730.941538  -2898.550673 -24239.070055     11.660991
*  2014  7 22 13 45  0.00000000
PJ01 -27212.265436  22617.126968  28102.471142    216.667690
PE11   1006.937518 -21241.445963 -20585.934488     50.620684
PE12  16550.073218 -23476.200443  -7127.955347     22.928195
PE19  16911.867580  -2192.441918 -24187.997105     11.661224
*  2014  7 22 13 50  0.00000000
PJ01 -27337.771328  22648.685517  27921.281389    216.661712
PE11   1429.159630 -21684.687833 -20092.639240     50.623918
PE12  16679.215075 -23632.001627  -6259.658180     22.931321
PE19  17108.246909  -1492.603917 -24103.454067     11.661430
*  2014  7 22 13 55  0.00000000
PJ01 -27464.170708  22687.776918  27729.219410    216.655682
PE11   1830.727316 -22126.328387 -19571.543577     50.627171
PE12  16786.789874 -23771.581764  -5382.696572     22.934494
PE19  17319.599663   -800.335944 -23985.558973     11.661634
*  2014  7 22 14  0  0.00000000
PJ01 -27591.129048  22734.423500  27526.344170    216.649598
PE11   2211.375812 -22565.057462 -19023.367728     50.630389
PE12  16873.433292 -23893.884848  -4498.284403     22.937655
PE19  17545.376237   -116.907834 -23834.475995     11.661874
*  2014  7 22 14  5  0.00000000
PJ01 -27718.310137  22788.632768  27312.718155    216.643646
PE11   2570.916741 -22999.557584 -18448.869439     50.633663
PE12  16939.845222 -23997.899781  -3607.645867     22.940850
PE19  17784.959149    556.444166 -23650.415223     11.662105
*  2014  7 22 14 10  0.00000000
PJ01 -27845.376702  22850.397322  27088.407369    216.637630
PE11   2909.238532 -23428.508526 -17848.842928     50.636886
PE12  16986.787093 -24082.664048  -2712.013750     22.944018
PE19  18037.665181   1218.521463 -23433.632348     11.662311
*  2014  7 22 14 15  0.00000000
PJ01 -27971.991001  22919.694810  26853.481372    216.631569
PE11   3226.306515 -23850.591860 -17224.117798     50.640147
PE12  17015.078978 -24147.267215  -1812.627741     22.947192
PE19  18302.747707   1868.166995 -23184.428324     11.662558
*  2014  7 22 14 20  0.00000000
PJ01 -28097.815444  22996.487897  26608.013278    216.625591
PE11   3522.162793 -24264.495528 -16575.557878     50.643409
PE12  17025.596495 -24190.854256   -910.732695     22.950392
PE19  18579.399285   2504.269014 -22903.148936     11.662797
*  2014  7 22 14 25  0.00000000
PJ01 -28222.513207  23080.724253  26352.079782    216.619625
PE11   3796.925832 -24668.918373 -15904.060044     50.646664
PE12  17019.267527 -24212.628676     -7.576911     22.953558
PE19  18866.754445   3125.764688 -22590.184318     11.663014
*  2014  7 22 14 30  0.00000000
PJ01 -28345.748849  23172.336576  26085.761176    216.613560
PE11   4050.789770 -25062.574654 -15210.552975     50.649893
PE12  16997.068748 -24211.855450    895.589599     22.956734
PE19  19163.892688   3731.643529 -22245.968411     11.663255
*  2014  7 22 14 35  0.00000000
PJ01 -28467.188927  23271.242627  25809.141363    216.607512
PE11   4284.023483 -25444.198505 -14495.995866     50.653105
PE12  16960.021995 -24187.863738   1797.516852     22.959907
PE19  19469.841682   4320.950651 -21870.978354     11.663454
*  2014  7 22 14 40  0.00000000
PJ01 -28586.502607  23377.345310  25522.307881    216.601562
PE11   4496.969370 -25812.548327 -13761.377115     50.656322
PE12  16909.190468 -24140.049386   2696.956618     22.963094
PE19  19783.580645   4892.789812 -21465.733826     11.663674
*  2014  7 22 14 45  0.00000000
PJ01 -28703.362285  23490.532747  25225.351919    216.595530
PE11   4690.041900 -26166.411106 -13007.712939     50.659591
PE12  16845.674810 -24067.877191   3592.664164     22.966286
PE19  20104.043892   5446.326283 -21030.796316     11.663925
*  2014  7 22 14 50  0.00000000
PJ01 -28817.444191  23610.678404  24918.368338    216.589475
PE11   4863.725887 -26504.606627 -12236.045982     50.662825
PE12  16770.609037 -23970.882935   4483.399969     22.969451
PE19  20430.124555   5980.789470 -20566.768347     11.664157
*  2014  7 22 14 55  0.00000000
PJ01 -28928.429000  23737.641230  24601.455690    216.583485
PE11   5018.574533 -26825.991592 -11447.443863     50.666046
PE12  16685.156365 -23848.675171   5367.931458     22.972619
PE19  20760.678439   6495.475331 -20074.292637     11.664354
*  2014  7 22 15  0  0.00000000
PJ01 -29036.002432  23871.265817  24274.716238    216.577474
PE11   5155.207229 -27129.463592 -10642.997707     50.669255
PE12  16590.504945 -23700.936753   6245.034693     22.975791
PE19  21094.528019   6989.748554 -19554.051209     11.664546
*  2014  7 22 15  5  0.00000000
PJ01 -29139.855854  24011.382592  23938.255975    216.571398
PE11   5274.307121 -27413.964967  -9823.820623     50.672518
PE12  16487.863494 -23527.426120   7113.496089     22.978988
PE19  21430.466556   7463.044504 -19006.764438     11.664790
*  2014  7 22 15 10  0.00000000
PJ01 -29239.686862  24157.808034  23592.184650    216.565406
PE11   5376.618454 -27678.486490  -8991.046168     50.675740
PE12  16378.456876 -23327.978312   7972.114081     22.982181
PE19  21767.262319   7914.870905 -18433.190059     11.664987
*  2014  7 22 15 15  0.00000000
PJ01 -29335.199873  24310.344903  23236.615781    216.559402
PE11   5462.943706 -27922.070901  -8145.826780     50.678958
PE12  16263.521620 -23102.505719   8819.700795     22.985373
PE19  22103.662892   8344.809290 -17834.122114     11.665228
*  2014  7 22 15 20  0.00000000
PJ01 -29426.106702  24468.782505  22871.666681    216.553322
PE11   5534.140516 -28143.816260  -7289.332166     50.682196
PE12  16144.301406 -22850.998569   9655.083698     22.988522
PE19  22438.399567   8752.516187 -17210.389846     11.665472
*  2014  7 22 15 25  0.00000000
PJ01 -29512.127116  24632.896983  22497.458480    216.547337
PE11   5591.118416 -28342.879108  -6422.747699     50.685428
PE12  16022.042519 -22573.525149  10477.107211     22.991726
PE19  22770.191789   9137.724032 -16562.856557     11.665703
*  2014  7 22 15 30  0.00000000
PJ01 -29592.989408  24802.451613  22114.116137    216.541350
PE11   5634.835389 -28518.477434  -5547.272754     50.688635
PE12  15897.989312 -22270.231743  11284.634321     22.994872
PE19  23097.751655   9500.241840 -15892.418406     11.665922
*  2014  7 22 15 35  0.00000000
PJ01 -29668.430927  24977.197149  21721.768472    216.535290
PE11   5666.294250 -28669.893423  -4664.119062     50.691892
PE12  15773.379666 -21941.342320  12076.548143     22.998048
PE19  23419.788430   9839.955586 -15200.003173     11.666148
*  2014  7 22 15 40  0.00000000
PJ01 -29738.198621  25156.872167  21320.548177    216.529272
PE11   5686.538878 -28796.475995  -3774.509012     50.695104
PE12  15649.440485 -21587.157932  12851.753474     23.001256
PE19  23735.013090  10156.828342 -14486.568965     11.666379
*  2014  7 22 15 45  0.00000000
PJ01 -29802.049555  25341.203452  20910.591843    216.523291
PE11   5696.650297 -28897.643103  -2879.673971     50.698329
PE12  15527.383227 -21208.055870  13609.178299     23.004451
PE19  24042.142853  10450.900118 -13753.102903     11.666590
*  2014  7 22 15 50  0.00000000
PJ01 -29859.751420  25529.906386  20492.039973    216.517227
PE11   5697.742638 -28972.883803  -1980.852558     50.701574
PE12  15408.399494 -20804.488533  14347.775282     23.007639
PE19  24339.905697  10722.287466 -13000.619741     11.666800
*  2014  7 22 15 55  0.00000000
PJ01 -29911.083023  25722.685384  20065.037006    216.511168
PE11   5690.958968 -29021.760079  -1079.288931     50.704822
PE12  15293.656698 -20376.982053  15066.523207     23.010823
PE19  24627.044846  10971.182793 -12230.160469     11.667025
*  2014  7 22 16  0  0.00000000
PJ01 -29955.834766  25919.234324  19629.731333    216.505203
PE11   5677.467040 -29043.908407   -176.231068     50.708078
PE12  15184.293808 -19926.134666  15764.428386     23.014032
PE19  24902.323197  11197.853421 -11442.790873     11.667248
*  2014  7 22 16  5  0.00000000
PJ01 -29993.809107  26119.237016  19186.275322    216.499155
PE11   5658.454947 -29039.041078    727.070981     50.711329
PE12  15081.417214 -19452.614818  16440.526034     23.017205
PE19  25164.527690  11402.640393 -10639.600060     11.667457
*  2014  7 22 16 10  0.00000000
PJ01 -30024.821007  26322.367689  18734.825317    216.493092
PE11   5635.126695 -29006.947250   1629.366818     50.714548
PE12  14986.096684 -18957.159056  17093.881601     23.020389
PE19  25412.473607  11585.957004  -9821.698945     11.667649
*  2014  7 22 16 15  0.00000000
PJ01 -30048.698347  26528.291494  18275.541676    216.487106
PE11   5608.697740 -28947.493736   2529.407444     50.717776
PE12  14899.361478 -18440.569652  17723.592061     23.023611
PE19  25645.008752  11748.287102  -8990.218718     11.667843
*  2014  7 22 16 20  0.00000000
PJ01 -30065.282349  26736.665019  17808.588773    216.481112
PE11   5580.390481 -28860.625529   3425.946983     50.721029
PE12  14822.196598 -17903.712030  18328.787149     23.026781
PE19  25861.017539  11890.183134  -8146.309288     11.668063
*  2014  7 22 16 25  0.00000000
PJ01 -30074.427948  26947.136847  17334.135014    216.475072
PE11   5551.429715 -28746.366054   4317.744422     50.724310
PE12  14755.539184 -17347.511954  18908.630571     23.030018
PE19  26059.424959  12012.263953  -7291.137676     11.668306
*  2014  7 22 16 30  0.00000000
PJ01 -30076.004168  27159.348104  16852.352857    216.469076
PE11   5523.038103 -28604.817153   5203.565324     50.727549
PE12  14700.275102 -16772.952526  19462.321143     23.033217
PE19  26239.200391  12115.212396  -6425.886417     11.668507
*  2014  7 22 16 35  0.00000000
PJ01 -30069.894467  27372.933044  16363.418813    216.463083
PE11   5496.431635 -28436.158795   6082.183554     50.730811
PE12  14657.235697 -16181.070967  19989.093906     23.036420
PE19  26399.361281  12199.772644  -5551.751915     11.668707
*  2014  7 22 16 40  0.00000000
PJ01 -30055.997055  27587.519639  15867.513462    216.457060
PE11   5472.815125 -28240.648522   6952.382974     50.734076
PE12  14627.194749 -15572.955230  20488.221170     23.039628
PE19  26538.976649  12266.747368  -4669.942792     11.668927
*  2014  7 22 16 45  0.00000000
PJ01 -30034.225200  27802.730194  15364.821466    216.451024
PE11   5453.377737 -28018.620626   7812.959127     50.737322
PE12  14610.865631 -14949.740433  20959.013511     23.042789
PE19  26657.170416  12316.994667  -3781.678224     11.669112
*  2014  7 22 16 50  0.00000000
PJ01 -30004.507502  28018.181967  14855.531565    216.445043
PE11   5439.288581 -27770.485060   8662.720923     50.740568
PE12  14608.898686 -14312.605118  21400.820729     23.046010
PE19  26753.124548  12351.424824  -2888.186243     11.669312
*  2014  7 22 16 55  0.00000000
PJ01 -29966.788145  28233.487816  14339.836593    216.438972
PE11   5431.692364 -27496.726095   9500.492273     50.743770
PE12  14621.878817 -13662.767386  21813.032730     23.049178
PE19  26826.082004  12370.996873  -1990.702056     11.669497
*  2014  7 22 17  0  0.00000000
PJ01 -29921.027126  28448.256851  13817.933472    216.432942
PE11   5431.705145 -27197.900709  10325.113741     50.747036
PE12  14650.323319 -13001.480870  22195.080369     23.052432
PE19  26875.349470  12376.715005  -1090.466322     11.669733
*  2014  7 22 17  5  0.00000000
PJ01 -29867.200449  28662.095099  13290.023224    216.426914
PE11   5440.410171 -26874.636740  11135.444131     50.750229
PE12  14694.679944 -12330.030615  22546.436225     23.055592
PE19  26900.299877  12369.624809   -188.723458     11.669923
*  2014  7 22 17 10  0.00000000
PJ01 -29805.300315  28874.606183  12756.310955    216.420959
PE11   5458.853858 -26527.630784  11930.362093     50.753583
PE12  14755.325223 -11649.728811  22866.615332     23.058864
PE19  26900.374687  12350.809385    713.280105     11.670190
*  2014  7 22 17 15  0.00000000
PJ01 -29735.335255  29085.392010  12217.005864    216.414838
PE11   5488.041874 -26157.645866  12708.767652     50.756770
PE12  14832.563022 -10961.910484  23155.175831     23.062008
PE19  26875.085954  12321.385314   1614.297614     11.670341
*  2014  7 22 17 20  0.00000000
PJ01 -29657.330259  29294.053474  11672.321232    216.408873
PE11   5528.935379 -25765.508874  13469.583752     50.760071
PE12  14926.623373 -10267.929068  23411.719586     23.065234
PE19  26824.018130  12282.498518   2513.083739     11.670603
*  2014  7 22 17 25  0.00000000
PJ01 -29571.326862  29500.191161  11122.474410    216.402922
PE11   5582.447426 -25352.107783  14211.757744     50.763358
PE12  15037.661556  -9569.151932  23635.892721     23.068502
PE19  26746.829635  12235.320025   3408.396281     11.670844
*  2014  7 22 17 30  0.00000000
PJ01 -29477.383217  29703.406063  10567.686813    216.396859
PE11   5649.439525 -24918.388662  14934.262831     50.766613
PE12  15165.757447  -8866.955869  23827.386102     23.071730
PE19  26643.254158  12181.041644   4298.997884     11.671055
*  2014  7 22 17 35  0.00000000
PJ01 -29375.574115  29903.300309  10008.183897    216.390785
PE11   5730.718387 -24465.352484  15636.099509     50.769808
PE12  15310.915134  -8162.722534  23985.935764     23.074849
PE19  26513.101719  12120.871564   5183.657752     11.671181
*  2014  7 22 17 40  0.00000000
PJ01 -29265.991003  30099.477880   9444.195152    216.384936
PE11   5827.032876 -23994.051754  16316.296932     50.773155
PE12  15473.062802  -7457.833885  24111.323266     23.078152
PE19  26356.259445  12056.029912   6061.153336     11.671455
*  2014  7 22 17 45  0.00000000
PJ01 -29148.741953  30291.545351   8875.954065    216.378844
PE11   5939.071145 -23505.586950  16973.914270     50.776366
PE12  15652.052884  -6753.667612  24203.375990     23.081310
PE19  26172.692100  11987.744260   6930.272030     11.671608
*  2014  7 22 17 50  0.00000000
PJ01 -29023.951601  30479.112627   8303.698110    216.372883
PE11   6067.458001 -23001.102817  17608.041997     50.779691
PE12  15847.662477  -6051.592598  24261.967372     23.084602
PE19  25962.442343  11917.245112   7789.812835     11.671896
*  2014  7 22 17 55  0.00000000
PJ01 -28891.761071  30661.793674   7727.668705    216.366837
PE11   6212.752490 -22481.784484  18217.803159     50.782894
PE12  16059.594035  -5352.964390  24287.017073     23.087737
PE19  25725.630710  11845.761386   8638.588024     11.672048
*  2014  7 22 18  0  0.00000000
PJ01 -28752.327845  30839.207265   7148.111187    216.360855
PE11   6375.445704 -21948.853479  18802.354574     50.786176
PE12  16287.476307  -4659.120747  24278.491091     23.090995
PE19  25462.455337  11774.515897   9475.424769     11.672289
*  2014  7 22 18  5  0.00000000
PJ01 -28605.825624  31010.977713   6565.274781    216.354801
PE11   6555.958853 -21403.563590  19360.888002     50.789456
PE12  16530.865568  -3971.377221  24236.401791     23.094225
PE19  25173.191418  11704.720873  10299.166764     11.672512
*  2014  7 22 18 10  0.00000000
PJ01 -28452.444137  31176.735615   5979.412532    216.348793
PE11   6754.641541 -20847.196632  19892.631266     50.792685
PE12  16789.247057  -3291.022841  24160.807903     23.097395
PE19  24858.190385  11637.573501  11108.675823     11.672695
*  2014  7 22 18 15  0.00000000
PJ01 -28292.388938  31336.118574   5390.781288    216.342862
PE11   6971.770343 -20281.058120  20396.849302     50.796036
PE12  17062.036718  -2619.315880  24051.814425     23.100689
PE19  24517.878842  11574.251538  11902.833435     11.672992
*  2014  7 22 18 20  0.00000000
PJ01 -28125.881153  31488.771943   4799.641634    216.336747
PE11   7207.547603 -19706.472861  20872.845188     50.799268
PE12  17348.583155  -1957.479729  23909.572478     23.103846
PE19  24152.757230  11515.908977  12680.542321     11.673175
*  2014  7 22 18 25  0.00000000
PJ01 -27953.157211  31634.349534   4206.257838    216.330717
PE11   7462.100511 -19124.780482  21319.961089     50.802486
PE12  17648.169832  -1306.698900  23734.279097     23.106980
PE19  23763.398242  11463.671819  13440.727929     11.673317
*  2014  7 22 18 30  0.00000000
PJ01 -27774.468528  31772.514348   3610.897788    216.324777
PE11   7735.480437 -18537.330907  21737.579177     50.805834
PE12  17960.017508   -668.115162  23526.176959     23.110233
PE19  23350.444987  11418.633927  14182.339930     11.673579
*  2014  7 22 18 35  0.00000000
PJ01 -27590.081170  31902.939274   3013.832931    216.318711
PE11   8027.662536 -17945.479814  22125.122467     50.809079
PE12  18283.286890    -42.823826  23285.554043     23.113415
PE19  22914.608920  11381.853003  14904.353652     11.673776
*  2014  7 22 18 40  0.00000000
PJ01 -27400.275481  32025.307793   2415.338191    216.312707
PE11   8338.545622 -17350.584061  22482.055620     50.812361
PE12  18617.081504    568.129805  23012.743234     23.116617
PE19  22456.667525  11354.346692  15605.771499     11.673975
*  2014  7 22 18 45  0.00000000
PJ01 -27205.345685  32139.314658   1815.691902    216.306739
PE11   8667.952306 -16753.997120  22807.885674     50.815622
PE12  18960.450763   1163.753812  22708.121864     23.119825
PE19  21977.461781  11337.088832  16285.624319     11.674181
*  2014  7 22 18 50  0.00000000
PJ01 -27005.599438  32244.666578   1215.175715    216.300714
PE11   9015.629409 -16157.064527  23102.162720     50.818952
PE12  19312.393232   1743.112852  22372.111189     23.123084
PE19  21477.893408  11331.005852  16942.972743     11.674446
*  2014  7 22 18 55  0.00000000
PJ01 -26801.357374  32341.082873    614.074513    216.294708
PE11   9381.248637 -15561.119356  23364.480522     50.822247
PE12  19671.860073   2305.331143  22005.175809     23.126311
PE19  20958.921902  11336.973341  17576.908477     11.674709
*  2014  7 22 19  0  0.00000000
PJ01 -26592.952603  32428.296117     12.676314    216.288718
PE11   9764.407521 -14967.477754  23594.477067     50.825497
PE12  20037.758657   2849.595252  21607.823029     23.129490
PE19  20421.561376  11355.812802  18186.555547     11.674918
*  2014  7 22 19  5  0.00000000
PJ01 -26380.730185  32506.052767   -588.727836    216.282687
PE11  10164.630622 -14377.434521  23791.835069     50.828800
PE12  20408.956341   3375.156664  21180.602156     23.132702
PE19  19866.877208  11388.288590  18771.071516     11.675151
*  2014  7 22 19 10  0.00000000
PJ01 -26165.046573  32574.113774  -1189.843963    216.276689
PE11  10581.370988 -13792.258786  23956.282393     50.832065
PE12  20784.284370   3881.334109  20724.103748     23.135884
PE19  19295.982526  11435.105052  19329.648631     11.675363
*  2014  7 22 19 15  0.00000000
PJ01 -25946.269030  32632.255171  -1790.375292    216.270745
PE11  11014.011869 -13213.189757  24087.592431     50.835363
PE12  21162.541935   4367.515681  20238.958793     23.139089
PE19  18710.034509  11496.903885  19861.514946     11.675602
*  2014  7 22 19 20  0.00000000
PJ01 -25724.775015  32680.268634  -2390.022363    216.264730
PE11  11461.868670 -12641.432599  24185.584409     50.838610
PE12  21542.500324   4833.160693  19725.837850     23.142268
PE19  18110.230560  11574.261715  20365.935378     11.675800
*  2014  7 22 19 25  0.00000000
PJ01 -25500.951538  32717.962035  -2988.483164    216.258636
PE11  11924.191155 -12078.154415  24250.123633     50.841876
PE12  21922.907187   5277.801291  19185.450114     23.145436
PE19  17497.804327  11667.687891  20842.212723     11.676005
*  2014  7 22 19 30  0.00000000
PJ01 -25275.194493  32745.159958  -3585.453265    216.252672
PE11  12400.165867 -11524.480381  24281.121666     50.845166
PE12  22302.490880   5701.043816  18618.542450     23.148626
PE19  16874.021611  11777.622538  21289.688612     11.676253
*  2014  7 22 19 35  0.00000000
PJ01 -25047.907965  32761.704191  -4180.625968    216.246702
PE11  12888.918790 -10981.490013  24278.536448     50.848453
PE12  22679.964892   6102.569906  18025.898355     23.151800
PE19  16240.176149  11904.434837  21707.744426     11.676474
*  2014  7 22 19 40  0.00000000
PJ01 -24819.503509  32767.454193  -4773.692457    216.240655
PE11  13389.518207 -10450.213609  24242.372352     50.851725
PE12  23054.032315   6482.137337  17408.336886     23.154988
PE19  15597.585322  12048.421566  22095.802142     11.676684
*  2014  7 22 19 45  0.00000000
PJ01 -24590.399407  32762.287538  -5364.341951    216.234683
PE11  13900.977771  -9931.628864  24172.680168     50.855002
PE12  23423.390357   6839.580588  16766.711532     23.158197
PE19  14947.585775  12209.805884  22453.325127     11.676896
*  2014  7 22 19 50  0.00000000
PJ01 -24361.019900  32746.100311  -5952.261884    216.228749
PE11  14422.259776  -9426.657660  24069.557032     50.858284
PE12  23786.734894   7174.811166  16101.909031     23.161395
PE19  14291.528962  12388.736391  22779.818889     11.677141
*  2014  7 22 19 55  0.00000000
PJ01 -24131.794403  32718.807492  -6537.138065    216.222704
PE11  14952.278590  -8936.163074  23933.146288     50.861577
PE12  24142.765008   7487.817625  15414.848159     23.164595
PE19  13630.776666  12585.286435  23074.831750     11.677376
*  2014  7 22 20  0  0.00000000
PJ01 -23903.156694  32680.343299  -7118.654878    216.216674
PE11  15489.904282  -8460.946567  23763.637286     50.864841
PE12  24490.187537   7778.665351  14706.478453     23.167774
PE19  12966.696455  12799.453696  23337.955476     11.677587
*  2014  7 22 20  5  0.00000000
PJ01 -23675.544087  32630.661493  -7696.495442    216.210717
PE11  16033.966389  -8001.745429  23561.265112     50.868104
PE12  24827.721593   8047.496055  13977.778915     23.170941
PE19  12300.657155  13031.160021  23568.825836     11.677797
*  2014  7 22 20 10  0.00000000
PJ01 -23449.396586  32569.735654  -8270.341855    216.204728
PE11  16583.257834  -7559.230393  23326.310271     50.871406
PE12  25154.103046   8294.527021  13229.756649     23.174125
PE19  11634.024279  13280.251555  23767.123111     11.678006
*  2014  7 22 20 15  0.00000000
PJ01 -23225.156025  32497.559419  -8839.875355    216.198657
PE11  17136.538974  -7134.003550  23059.098284     50.874662
PE12  25468.088950   8520.050070  12463.445489     23.177342
PE19  10968.155520  13546.499103  23932.572537     11.678223
*  2014  7 22 20 20  0.00000000
PJ01 -23003.265190  32414.146679  -9404.776558    216.192718
PE11  17692.541766  -6726.596456  22759.999247     50.877951
PE12  25768.461901   8724.430278  11679.904556     23.180568
PE19  10304.396223  13829.598786  24064.944682     11.678446
*  2014  7 22 20 25  0.00000000
PJ01 -22784.166930  32319.531743  -9964.725674    216.186724
PE11  18249.974035  -6337.468506  22429.427307     50.881238
PE12  26054.034314   8908.104439  10880.216812     23.183776
PE19   9644.074941  14129.172946  24164.055773     11.678661
*  2014  7 22 20 30  0.00000000
PJ01 -22568.303261  32213.769454 -10519.402726    216.180733
PE11  18807.523823  -5967.005567  22067.840097     50.884533
PE12  26323.652593   9071.579271  10065.487560     23.186976
PE19   8988.499029  14444.771316  24229.767947     11.678889
*  2014  7 22 20 35  0.00000000
PJ01 -22356.114451  32096.935274 -11068.487804    216.174691
PE11  19363.863824  -5615.518855  21675.738095     50.887755
PE12  26576.201198   9215.429387   9236.842919     23.190129
PE19   8338.950320  14775.872448  24261.989451     11.679076
*  2014  7 22 20 40  0.00000000
PJ01 -22148.038109  31969.125319 -11611.661289    216.168659
PE11  19917.655860  -5283.244086  21253.663938     50.891022
PE12  26810.606566   9340.295024   8395.428275     23.193311
PE19   7696.680899  15121.885386  24260.674769     11.679286
*  2014  7 22 20 45  0.00000000
PJ01 -21944.508254  31830.456358 -12148.604116    216.162657
PE11  20467.555411  -4970.340892  20802.201663     50.894306
PE12  27025.840912   9446.879542   7542.406692     23.196518
PE19   7062.908967  15482.151597  24225.824691     11.679538
*  2014  7 22 20 50  0.00000000
PJ01 -21745.954399  31681.065764 -12678.998025    216.156519
PE11  21012.216161  -4676.892494  20321.975908     50.897578
PE12  27220.925855   9535.946714   6678.957318     23.199699
PE19   6438.814838  15855.947123  24157.486319     11.679733
*  2014  7 22 20 55  0.00000000
PJ01 -21552.800619  31521.111419 -13202.525829    216.150551
PE11  21550.294566  -4402.905654  19813.651040     50.900820
PE12  27394.935891   9608.317797   5806.273744     23.202886
PE19   5825.537064  16242.484985  24055.753009     11.679944
*  2014  7 22 21  0  0.00000000
PJ01 -21365.464623  31350.771589 -13718.871678    216.144447
PE11  22080.454396  -4148.310892  19277.930244     50.904055
PE12  27547.001675   9664.868402   4925.562370     23.206073
PE19   5224.168710  16640.917793  23920.764244     11.680135
*  2014  7 22 21  5  0.00000000
PJ01 -21184.356832  31170.244732 -14227.721341    216.138427
PE11  22601.371281  -3912.962970  18715.554547     50.907348
PE12  27676.313115   9706.525183   4038.040726     23.209266
PE19   4635.753780  17050.340586  23752.705454     11.680374
*  2014  7 22 21 10  0.00000000
PJ01 -21009.879459  30979.749284 -14728.762488    216.132482
PE11  23111.737197  -3696.641640  18127.301793     50.910634
PE12  27782.122268   9734.262342   3144.935798     23.212449
PE19   4061.283829  17469.793860  23551.807763     11.680579
*  2014  7 22 21 15  0.00000000
PJ01 -20842.425600  30779.523380 -15221.684970    216.126440
PE11  23610.264907  -3499.052661  17513.985575     50.913904
PE12  27863.746019   9749.097973   2247.482334     23.215662
PE19   3501.694751  17898.266802  23318.347679     11.680814
*  2014  7 22 21 20  0.00000000
PJ01 -20682.378327  30569.824542 -15706.181125    216.120124
PE11  24095.692339  -3319.829067  16876.454102     50.917157
PE12  27920.568537   9752.090253   1346.921129     23.218857
PE19   2957.863755  18334.700710  23052.646721     11.681042
*  2014  7 22 21 25  0.00000000
PJ01 -20530.109807  30350.929319 -16181.946062    216.114060
PE11  24566.786871  -3158.532702  16215.589037     50.920406
PE12  27952.043500   9744.333490    444.497322     23.222041
PE19   2430.606569  18777.992567  22755.070982     11.681244
*  2014  7 22 21 30  0.00000000
PJ01 -20385.980414  30123.132878 -16648.677973    216.107486
PE11  25022.349523  -3014.655989  15532.304271     50.923683
PE12  27957.696091   9726.954054   -458.541339     23.225247
PE19   1920.674830  19226.998794  22426.030628     11.681465
*  2014  7 22 21 35  0.00000000
PJ01 -20250.337882  29886.748553 -17106.078430    216.101136
PE11  25461.219030  -2887.623961  14827.544666     50.926985
PE12  27937.124735   9701.106188  -1360.946205     23.228464
PE19   1428.753728  19680.539132  22065.979348     11.681731
*  2014  7 22 21 40  0.00000000
PJ01 -20123.516457  29642.107349 -17553.852703    216.096187
PE11  25882.275794  -2776.796507  14102.284748     50.930271
PE12  27890.002593   9667.967734  -2261.469471     23.231651
PE19    955.459854  20137.400673  21675.413728     11.681960
*  2014  7 22 21 45  0.00000000
PJ01 -20005.836083  29389.557405 -17991.710063    216.090405
PE11  26284.445691  -2681.470872  13357.527365     50.933518
PE12  27816.078798   9628.735765  -3158.865884     23.234791
PE19    501.339317  20596.341989  21254.872577     11.682157
*  2014  7 22 21 50  0.00000000
PJ01 -19897.601602  29129.463405 -18419.364101    216.084364
PE11  26666.703722  -2600.884350  12594.302294     50.936801
PE12  27715.179430   9584.622160  -4051.894478     23.237984
PE19     66.866079  21056.097386  20804.936191     11.682424
*  2014  7 22 21 55  0.00000000
PJ01 -19799.101988  28862.205956 -18836.533044    216.078372
PE11  27028.077504  -2534.217208  11813.664824     50.940077
PE12  27587.208221   9536.849128  -4939.320289     23.241183
PE19   -347.559431  21515.381232  20326.225554     11.682641
*  2014  7 22 22  0  0.00000000
PJ01 -19710.609609  28588.180920 -19242.940066    216.072400
PE11  27367.650565  -2480.595802  11016.694303     50.943355
PE12  27432.147005   9486.644691  -5819.916052     23.244335
PE19   -741.611464  21972.892364  19819.401498     11.682885
*  2014  7 22 22  5  0.00000000
PJ01 -19632.379515  28307.798705 -19638.313605    216.066346
PE11  27684.565474  -2439.095876  10204.492636     50.946586
PE12  27250.055881   9435.238160  -6692.463915     23.247459
PE19  -1115.039834  22427.318557  19285.163792     11.683062
*  2014  7 22 22 10  0.00000000
PJ01 -19564.648758  28021.483514 -20022.387690    216.060339
PE11  27978.026740  -2408.746052   9378.182778     50.949878
PE12  27041.073129   9383.855589  -7555.757107     23.250636
PE19  -1467.670523  22877.341033  18724.250177     11.683314
*  2014  7 22 22 15  0.00000000
PJ01 -19507.635751  27729.672564 -20394.902247    216.054338
PE11  28247.303524  -2388.531477   8538.907165     50.953168
PE12  26805.414840   9333.715263  -8408.601628     23.253805
PE19  -1799.406040  23321.639001  18137.435363     11.683550
*  2014  7 22 22 20  0.00000000
PJ01 -19461.539672  27432.815263 -20755.603409    216.048350
PE11  28491.732112  -2377.397616   7687.826154     50.956449
PE12  26543.374288   9286.023207  -9249.817880     23.256994
PE19  -2110.225496  23758.894198  17525.529962     11.683783
*  2014  7 22 22 25  0.00000000
PJ01 -19426.539884  27131.372350 -21104.243839    216.042251
PE11  28710.718172  -2374.254208   6826.116403     50.959693
PE12  26255.321029   9241.968729 -10078.242320     23.260150
PE19  -2400.184418  24187.795444  16889.379368     11.683983
*  2014  7 22 22 30  0.00000000
PJ01 -19402.795425  26825.815008 -21440.583026    216.036325
PE11  28903.738756  -2377.979312   5954.969263     50.962979
PE12  25941.699741   9202.720038 -10892.729050     23.263334
PE19  -2669.414297  24607.043159  16229.862604     11.684206
*  2014  7 22 22 35  0.00000000
PJ01 -19390.444516  26516.623941 -21764.387599    216.030348
PE11  29070.344079  -2387.423503   5075.589115     50.966273
PE12  25603.028809   9169.419925 -11692.151419     23.266550
PE19  -2918.121860  25015.353859  15547.891103     11.684440
*  2014  7 22 22 40  0.00000000
PJ01 -19389.604133  26204.288422 -22075.431621    216.024269
PE11  29210.159026  -2401.414133   4189.191717     50.969536
PE12  25239.898648   9143.181545 -12475.403578     23.269760
PE19  -3146.588096  25411.464590  14844.407458     11.684673
*  2014  7 22 22 45  0.00000000
PJ01 -19400.369613  25889.305319 -22373.496882    216.018275
PE11  29322.884418  -2418.759687   3297.002525     50.972807
PE12  24852.969786   9125.084302 -13241.402002     23.272939
PE19  -3355.167007  25794.137300  14120.384123     11.684892
*  2014  7 22 22 50  0.00000000
PJ01 -19422.814311  25572.178089 -22658.373192    216.012305
PE11  29408.298007  -2438.254216   2400.254992     50.976087
PE12  24442.970705   9116.169840 -13989.087002     23.276149
PE19  -3544.284103  26162.163131  13376.822067     11.685117
*  2014  7 22 22 55  0.00000000
PJ01 -19456.989313  25253.415759 -22929.858656    216.006252
PE11  29466.255213  -2458.681795   1500.188870     50.979371
PE12  24010.695443   9117.438193 -14717.424184     23.279352
PE19  -3714.434664  26514.366608  12614.749398     11.685317
*  2014  7 22 23  0  0.00000000
PJ01 -19502.923195  24933.531872 -23187.759948    216.000175
PE11  29496.689593  -2478.821040    598.048494     50.982639
PE12  23557.000975   9129.844059 -15425.405886     23.282549
PE19  -3866.181738  26849.609721  11835.219938     11.685547
*  2014  7 22 23  5  0.00000000
PJ01 -19560.621827  24613.043437 -23431.892580    215.994214
PE11  29499.613042  -2497.449633   -304.918933     50.985908
PE12  23082.804386   9154.293249 -16112.052566     23.285729
PE19  -4000.153909  27166.795876  11039.311777     11.685766
*  2014  7 22 23 10  0.00000000
PJ01 -19630.068248  24292.469840 -23662.081152    215.988143
PE11  29475.115720  -2513.348852  -1207.465076     50.989166
PE12  22589.079815   9191.639300 -16776.414170     23.288927
PE19  -4117.042843  27464.873715  10228.125762     11.685973
*  2014  7 22 23 15  0.00000000
PJ01 -19711.222573  23972.331772 -23878.159597    215.982085
PE11  29423.365717  -2525.308096  -2108.342170     50.992445
PE12  22076.855225   9242.680275 -17417.571432     23.292121
PE19  -4217.600597  27742.840773   9402.784002     11.686198
*  2014  7 22 23 20  0.00000000
PJ01 -19804.021972  23653.150116 -24079.971419    215.976124
PE11  29344.608446  -2532.129369  -3006.304768     50.995726
PE12  21547.208974   9308.155761 -18034.637156     23.295319
PE19  -4302.636732  27999.746973   8564.428293     11.686396
*  2014  7 22 23 25  0.00000000
PJ01 -19908.380697  23335.444854 -24267.369913    215.970094
PE11  29239.165772  -2532.631731  -3900.111449     50.998991
PE12  21001.266227   9388.744073 -18626.757444     23.298495
PE19  -4373.015218  28234.697942   7714.218543     11.686623
*  2014  7 22 23 30  0.00000000
PJ01 -20024.190161  23019.733961 -24440.218375    215.964027
PE11  29107.434881  -2525.655686  -4788.526531     51.002267
PE12  20440.195198   9485.059673 -19193.112872     23.301674
PE19  -4429.651144  28446.858140   6853.331174     11.686859
*  2014  7 22 23 35  0.00000000
PJ01 -20151.319083  22706.532293 -24598.390305    215.958064
PE11  28949.886886  -2510.067496  -5670.321791     51.005509
PE12  19865.203248   9597.650815 -19732.919635     23.304859
PE19  -4473.507261  28635.453784   5982.957476     11.687105
*  2014  7 22 23 40  0.00000000
PJ01 -20289.613674  22396.350493 -24741.769583    215.952040
PE11  28767.065182  -2484.763401  -6544.278148     51.008747
PE12  19277.532854   9726.997418 -20245.430619     23.308045
PE19  -4505.590342  28799.775557   5104.301974     11.687324
*  2014  7 22 23 45  0.00000000
PJ01 -20438.897896  22089.693883 -24870.250648    215.945973
PE11  28559.583553  -2448.673743  -7409.187359     51.011957
PE12  18678.457445   9873.509197 -20729.936452     23.311210
PE19  -4526.947409  28939.181112   4218.580736     11.687554
*  2014  7 22 23 50  0.00000000
PJ01 -20598.973755  21787.061389 -24983.738648    215.939985
PE11  28328.124037  -2400.766965  -8263.853676     51.015176
PE12  18069.277154  10037.524015 -21185.766471     23.314400
PE19  -4538.661792  29053.097323   3327.019706     11.687756
*  2014  7 22 23 55  0.00000000
PJ01 -20769.621670  21488.944457 -25082.149586    215.933988
PE11  28073.434555  -2340.053478  -9107.095515     51.018433
PE12  17451.314457  10219.306513 -21612.289660     23.317623
PE19  -4541.849087  29141.022321   2430.852986     11.687981
EOF
